OBJECT_NAME,OBJECT_ID,EPOCH,MEAN_MOTION,ECCENTRICITY,INCLINATION,RA_OF_ASC_NODE,ARG_OF_PERICENTER,MEAN_ANOMALY,EPHEMERIS_TYPE,CLASSIFICATION_TYPE,NORAD_CAT_ID,ELEMENT_SET_NO,REV_AT_EPOCH,BSTAR,MEAN_MOTION_DOT,MEAN_MOTION_DDOT
SL-12 R/B(2),1985-042D,2026-06-16T23:21:00.514368,14.22005935,.0036321,71.1078,237.9690,328.0731,204.5623,0,U,15772,999,12850,.73142E-4,.115E-5,0
SL-14 R/B,1985-069B,2026-06-16T16:45:07.485120,14.86515235,.0017757,82.5271,291.8259,220.8646,139.1241,0,U,15945,999,18754,.39919E-4,.378E-5,0
SL-16 R/B,1985-097B,2026-06-16T18:46:25.668192,14.16610178,.00054,71.0033,291.9303,112.2363,354.4419,0,U,16182,999,10126,-.44323E-4,-.136E-5,0
SL-14 R/B,1986-006B,2026-06-17T01:14:13.596000,14.86945564,.0074964,82.5261,166.2409,303.9374,55.4730,0,U,16496,999,16397,.46893E-4,.467E-5,0
COSMOS 1743,1986-034A,2026-06-16T22:55:26.586048,15.66924533,.0003911,82.5280,328.9780,271.6589,88.4223,0,U,16719,999,19575,.39534E-3,.42027E-3,0
SL-14 R/B,1986-046B,2026-06-16T22:49:11.920224,14.85670894,.0021597,82.4816,346.3987,259.3095,100.5689,0,U,16792,999,14114,.34417E-4,.323E-5,0
SL-14 R/B,1986-055B,2026-06-17T02:00:02.905344,14.85723072,.001908,82.5204,33.2306,8.0271,82.8315,0,U,16882,999,13412,.33256E-4,.314E-5,0
AJISAI (EGS),1986-061A,2026-06-17T04:52:51.734784,12.44516799,.0011216,50.0066,147.3450,180.6298,193.2259,0,U,16908,999,48039,-.13819E-3,-.117E-5,0
SL-14 R/B,1987-024B,2026-06-17T00:22:20.064000,14.86213126,.0016808,82.5279,359.4120,293.8698,66.0757,0,U,17567,999,10288,.3374E-4,.321E-5,0
COSMOS 1833,1987-027A,2026-06-17T02:35:56.879808,14.13049961,.0022788,70.9178,117.0337,55.2743,305.0520,0,U,17589,999,2436,.19663E-3,.32E-5,0
SL-16 R/B,1987-027B,2026-06-17T01:47:55.787136,14.17171768,.0006525,71.0033,67.0653,312.3794,47.6776,0,U,17590,999,2942,-.78789E-4,-.207E-5,0
SL-14 R/B,1987-038B,2026-06-17T01:28:37.774848,14.85445144,.0018883,82.5008,203.1907,191.5694,168.5091,0,U,17912,999,9398,.29354E-4,.278E-5,0
COSMOS 1844,1987-041A,2026-06-17T02:34:15.090240,14.14567907,.0032902,70.8968,184.4761,235.6855,124.1151,0,U,17973,999,1764,-.59511E-4,-.164E-5,0
SL-14 R/B,1987-055B,2026-06-16T22:53:20.690880,14.85710970,.0021718,82.4995,255.4491,48.4213,311.8860,0,U,18153,999,8467,.34178E-4,.322E-5,0
COSMOS 1867,1987-060A,2026-06-16T23:50:38.813856,14.31515722,.0016529,65.0115,28.6011,282.1614,77.7618,0,U,18187,999,3415,.14403E-4,-.62E-6,0
SL-14 R/B,1988-001B,2026-06-16T21:19:13.052064,14.85609453,.0016427,82.5132,102.0548,270.6415,89.2919,0,U,18749,999,5675,.37703E-4,.351E-5,0
COSMOS 1933,1988-020A,2026-06-17T00:54:01.702080,15.18712193,.0003566,82.5120,152.5832,185.4910,174.6286,0,U,18958,999,6530,.16027E-3,.3355E-4,0
SL-3 R/B,1988-032B,2026-06-17T02:40:36.293952,15.20840254,.0023803,97.5256,151.1522,245.2642,114.6116,0,U,19046,999,6721,.15206E-3,.3308E-4,0
SL-16 R/B,1988-039B,2026-06-16T20:08:10.464864,14.19629501,.0022278,71.0138,218.8944,193.6808,166.3716,0,U,19120,999,97245,.20757E-4,-.4E-7,0
COSMOS 1953,1988-050A,2026-06-17T02:01:10.301664,15.29978724,.0012151,82.5077,58.1385,126.6980,233.5379,0,U,19210,999,5297,.22274E-3,.6509E-4,0
SL-8 R/B,1988-053B,2026-06-17T02:20:24.965088,14.38967401,.001916,74.0480,289.2225,84.5948,92.5556,0,U,19257,999,99089,.5525E-4,.145E-5,0
COSMOS 1975,1988-093A,2026-06-17T02:08:01.545792,15.29324268,.0011324,82.5186,17.8007,171.8457,188.2969,0,U,19573,999,3459,.17958E-3,.5149E-4,0
SL-14 R/B,1988-093B,2026-06-17T03:48:47.966400,14.85741851,.0022091,82.5311,308.6712,70.5377,102.2196,0,U,19574,999,1578,.39775E-4,.372E-5,0
SL-16 R/B,1988-102B,2026-06-17T01:49:16.355136,14.16164265,.0015794,71.0000,302.3730,225.5351,134.4482,0,U,19650,999,94096,-.6025E-4,-.167E-5,0
INTERCOSMOS 24,1989-080A,2026-06-17T02:18:09.457056,12.59661920,.1188374,82.6065,39.7045,62.1168,309.5156,0,U,20261,999,67931,.21998E-3,.777E-5,0
SL-14 R/B,1989-080C,2026-06-17T01:58:31.533024,12.50570714,.1228758,82.5932,109.3751,317.6420,33.5854,0,U,20262,999,67257,.7225E-4,.242E-5,0
DELTA 1 R/B,1989-089B,2026-06-17T01:57:07.506432,14.50731295,.0069235,97.0636,359.6565,167.3108,192.9853,0,U,20323,999,91014,.68833E-4,.244E-5,0
ARIANE 40 R/B,1990-005H,2026-06-17T02:44:25.253952,14.39927433,.0008836,98.2959,225.7325,264.5713,95.4468,0,U,20443,999,90711,.78514E-4,.205E-5,0
DELTA 2 R/B(1),1990-008B,2026-06-16T14:49:34.654080,15.68742109,.0065024,35.5992,239.4686,109.1082,251.6712,0,U,20453,999,94161,.54588E-3,.73516E-3,0
COSMOS 2058,1990-010A,2026-06-17T03:15:04.970016,15.12014038,.0009172,82.4683,309.4053,0.8124,359.3120,0,U,20465,999,95726,.19773E-3,.3426E-4,0
SL-14 R/B,1990-010B,2026-06-17T02:24:36.516096,14.83646170,.0019091,82.5015,174.0264,336.6140,23.4204,0,U,20466,999,94322,.34086E-4,.306E-5,0
