SL-12 R/B(2)            
1 15772U 85042D   26167.97292262  .00000115  00000+0  73142-4 0  9999
2 15772  71.1078 237.9690 0036321 328.0731 204.5623 14.22005935128502
SL-14 R/B               
1 15945U 85069B   26167.69800330  .00000378  00000+0  39919-4 0  9995
2 15945  82.5271 291.8259 0017757 220.8646 139.1241 14.86515235187548
SL-16 R/B               
1 16182U 85097B   26167.78224153 -.00000136  00000+0 -44323-4 0  9992
2 16182  71.0033 291.9303 0005400 112.2363 354.4419 14.16610178101263
SL-14 R/B               
1 16496U 86006B   26168.05154625  .00000467  00000+0  46893-4 0  9997
2 16496  82.5261 166.2409 0074964 303.9374  55.4730 14.86945564163971
COSMOS 1743             
1 16719U 86034A   26167.95516882  .00042027  00000+0  39534-3 0  9992
2 16719  82.5280 328.9780 0003911 271.6589  88.4223 15.66924533195758
SL-14 R/B               
1 16792U 86046B   26167.95083241  .00000323  00000+0  34417-4 0  9993
2 16792  82.4816 346.3987 0021597 259.3095 100.5689 14.85670894141145
SL-14 R/B               
1 16882U 86055B   26168.08336696  .00000314  00000+0  33256-4 0  9993
2 16882  82.5204  33.2306 0019080   8.0271  82.8315 14.85723072134128
AJISAI (EGS)            
1 16908U 86061A   26168.20337656 -.00000117  00000+0 -13819-3 0  9995
2 16908  50.0066 147.3450 0011216 180.6298 193.2259 12.44516799480395
SL-14 R/B               
1 17567U 87024B   26168.01551000  .00000321  00000+0  33740-4 0  9998
2 17567  82.5279 359.4120 0016808 293.8698  66.0757 14.86213126102887
COSMOS 1833             
1 17589U 87027A   26168.10829722  .00000320  00000+0  19663-3 0  9990
2 17589  70.9178 117.0337 0022788  55.2743 305.0520 14.13049961 24367
SL-16 R/B               
1 17590U 87027B   26168.07495124 -.00000207  00000+0 -78789-4 0  9994
2 17590  71.0033  67.0653 0006525 312.3794  47.6776 14.17171768 29429
SL-14 R/B               
1 17912U 87038B   26168.06154832  .00000278  00000+0  29354-4 0  9991
2 17912  82.5008 203.1907 0018883 191.5694 168.5091 14.85445144 93989
COSMOS 1844             
1 17973U 87041A   26168.10711910 -.00000164  00000+0 -59511-4 0  9997
2 17973  70.8968 184.4761 0032902 235.6855 124.1151 14.14567907 17645
SL-14 R/B               
1 18153U 87055B   26167.95371170  .00000322  00000+0  34178-4 0  9991
2 18153  82.4995 255.4491 0021718  48.4213 311.8860 14.85710970 84672
COSMOS 1867             
1 18187U 87060A   26167.99350479 -.00000062  00000+0  14403-4 0  9998
2 18187  65.0115  28.6011 0016529 282.1614  77.7618 14.31515722 34150
SL-14 R/B               
1 18749U 88001B   26167.88834551  .00000351  00000+0  37703-4 0  9992
2 18749  82.5132 102.0548 0016427 270.6415  89.2919 14.85609453 56753
COSMOS 1933             
1 18958U 88020A   26168.03751970  .00003355  00000+0  16027-3 0  9998
2 18958  82.5120 152.5832 0003566 185.4910 174.6286 15.18712193 65301
SL-3 R/B                
1 19046U 88032B   26168.11153118  .00003308  00000+0  15206-3 0  9995
2 19046  97.5256 151.1522 0023803 245.2642 114.6116 15.20840254 67211
SL-16 R/B               
1 19120U 88039B   26167.83901001 -.00000004  00000+0  20757-4 0  9994
2 19120  71.0138 218.8944 0022278 193.6808 166.3716 14.19629501972452
COSMOS 1953             
1 19210U 88050A   26168.08414701  .00006509  00000+0  22274-3 0  9991
2 19210  82.5077  58.1385 0012151 126.6980 233.5379 15.29978724 52975
SL-8 R/B                
1 19257U 88053B   26168.09751117  .00000145  00000+0  55250-4 0  9992
2 19257  74.0480 289.2225 0019160  84.5948  92.5556 14.38967401990894
COSMOS 1975             
1 19573U 88093A   26168.08890678  .00005149  00000+0  17958-3 0  9993
2 19573  82.5186  17.8007 0011324 171.8457 188.2969 15.29324268 34590
SL-14 R/B               
1 19574U 88093B   26168.15888850  .00000372  00000+0  39775-4 0  9996
2 19574  82.5311 308.6712 0022091  70.5377 102.2196 14.85741851 15784
SL-16 R/B               
1 19650U 88102B   26168.07588374 -.00000167  00000+0 -60250-4 0  9997
2 19650  71.0000 302.3730 0015794 225.5351 134.4482 14.16164265940968
INTERCOSMOS 24          
1 20261U 89080A   26168.09594279  .00000777  00000+0  21998-3 0  9996
2 20261  82.6065  39.7045 1188374  62.1168 309.5156 12.59661920679310
SL-14 R/B               
1 20262U 89080C   26168.08230941  .00000242  00000+0  72250-4 0  9994
2 20262  82.5932 109.3751 1228758 317.6420  33.5854 12.50570714672572
DELTA 1 R/B             
1 20323U 89089B   26168.08133688  .00000244  00000+0  68833-4 0  9995
2 20323  97.0636 359.6565 0069235 167.3108 192.9853 14.50731295910142
ARIANE 40 R/B           
1 20443U 90005H   26168.11418118  .00000205  00000+0  78514-4 0  9990
2 20443  98.2959 225.7325 0008836 264.5713  95.4468 14.39927433907115
DELTA 2 R/B(1)          
1 20453U 90008B   26167.61776220  .00073516  00000+0  54588-3 0  9998
2 20453  35.5992 239.4686 0065024 109.1082 251.6712 15.68742109941613
COSMOS 2058             
1 20465U 90010A   26168.13547419  .00003426  00000+0  19773-3 0  9998
2 20465  82.4683 309.4053 0009172   0.8124 359.3120 15.12014038957265
SL-14 R/B               
1 20466U 90010B   26168.10042264  .00000306  00000+0  34086-4 0  9993
2 20466  82.5015 174.0264 0019091 336.6140  23.4204 14.83646170943223
